[{"OBJECT_NAME":"STARLINK-4456","OBJECT_ID":"2022-105AB","EPOCH":"2026-03-09T15:40:05.630016","MEAN_MOTION":15.05648277,"ECCENTRICITY":0.0002237,"INCLINATION":97.6019,"RA_OF_ASC_NODE":311.192,"ARG_OF_PERICENTER":83.0977,"MEAN_ANOMALY":277.0504,"EPHEMERIS_TYPE":0,"CLASSIFICATION_TYPE":"U","NORAD_CAT_ID":53673,"ELEMENT_SET_NO":999,"REV_AT_EPOCH":19329,"BSTAR":-2.3807e-6,"MEAN_MOTION_DOT":-9.5e-7,"MEAN_MOTION_DDOT":0},{"OBJECT_NAME":"BREEZE-KM R\/B","OBJECT_ID":"2017-064B","EPOCH":"2026-03-09T23:37:28.009344","MEAN_MOTION":15.19279068,"ECCENTRICITY":0.01790923,"INCLINATION":98.7537,"RA_OF_ASC_NODE":74.9596,"ARG_OF_PERICENTER":357.1764,"MEAN_ANOMALY":2.8439,"EPHEMERIS_TYPE":0,"CLASSIFICATION_TYPE":"U","NORAD_CAT_ID":42970,"ELEMENT_SET_NO":999,"REV_AT_EPOCH":45981,"BSTAR":0.00038198457,"MEAN_MOTION_DOT":0.00012295,"MEAN_MOTION_DDOT":0}]
